[Satellite]
VERSION=1.1
NAME=UPMSat 2
NICKNAME=UPMSat 2
TLE1=1 46276U 20061E   22335.58492946  .00004333  00000-0  20651-3 0  9996
TLE2=2 46276  97.3745  42.5679 0000924  33.7597 326.3696 15.19632175124242
STATUS=0
